[{"OBJECT_NAME":"STARLINK-34011","OBJECT_ID":"2025-093K","EPOCH":"2026-03-09T23:47:00.258144","MEAN_MOTION":15.27576868,"ECCENTRICITY":7.618e-5,"INCLINATION":42.9996,"RA_OF_ASC_NODE":76.6048,"ARG_OF_PERICENTER":326.9724,"MEAN_ANOMALY":33.108,"EPHEMERIS_TYPE":0,"CLASSIFICATION_TYPE":"U","NORAD_CAT_ID":63845,"ELEMENT_SET_NO":999,"REV_AT_EPOCH":4779,"BSTAR":0.0012365296,"MEAN_MOTION_DOT":0.00033918,"MEAN_MOTION_DDOT":0},{"OBJECT_NAME":"FENGYUN 1C DEB","OBJECT_ID":"1999-025EJQ","EPOCH":"2026-03-08T21:27:56.444256","MEAN_MOTION":15.23229897,"ECCENTRICITY":0.00101559,"INCLINATION":98.6645,"RA_OF_ASC_NODE":227.592,"ARG_OF_PERICENTER":263.6857,"MEAN_ANOMALY":96.3219,"EPHEMERIS_TYPE":0,"CLASSIFICATION_TYPE":"U","NORAD_CAT_ID":37470,"ELEMENT_SET_NO":999,"REV_AT_EPOCH":66762,"BSTAR":0.011057202,"MEAN_MOTION_DOT":0.00271626,"MEAN_MOTION_DDOT":0}]
